HST                     
1 20580U 90037B   26198.78172768  .00003062  00000+0  91664-4 0  9996
2 20580  28.4720 231.4172 0002181 129.0491 231.0299 15.31075985793265
POLAR                   
1 23802U 96013A   26198.07629098  .00000165  00000+0  00000+0 0  9991
2 23802  79.8950 226.6973 6500355 208.0495  91.8485  1.29846054145242
SWAS                    
1 25560U 98071A   26198.89164567  .00001572  00000+0  10365-3 0  9997
2 25560  69.8943 148.3288 0007746 227.6310 132.4199 15.09757045501905
CXO                     
1 25867U 99040B   26201.11356867  .00000551  00000+0  00000+0 0  9997
2 25867  56.6395 115.7467 7780937 310.0076   0.5836  0.37806069 17440
XMM-NEWTON              
1 25989U 99066A   26199.26509818 -.00000005  00000+0  00000+0 0  9993
2 25989  64.3180 282.5861 4665036  64.3602 359.9798  0.50127855 23154
TERRA                   
1 25994U 99068A   26198.91099444  .00000158  00000+0  41180-4 0  9998
2 25994  97.9439 247.2365 0003512 117.4238 346.6126 14.61124864414091
CLUSTER II-FM7 (SAMBA)  
1 26410U 00041A   26197.13957185  .00051232 -58450-4  00000+0 0  9991
2 26410 149.8273  56.2567 9088690 273.7641 359.2168  0.44844033 20444
CLUSTER II-FM8 (TANGO)  
1 26464U 00045B   26197.70211284  .00047405 -54219-4  00000+0 0  9996
2 26464 150.0212  57.4640 9093702 274.8348   1.9953  0.44420127 20448
ODIN                    
1 26702U 01007A   26198.06838138  .00291443  33379-4  95323-3 0  9995
2 26702  97.3705 241.2154 0005205 152.9850 207.1695 15.90578805394128
TIMED                   
1 26998U 01055B   26198.91766750  .00000547  00000+0  53213-4 0  9995
2 26998  74.0666 173.1400 0002287 297.9708  62.1245 14.95347730335411
CORIOLIS                
1 27640U 03001A   26198.91986489  .00000038  00000+0  38359-4 0  9995
2 27640  98.7135 205.3362 0015006 121.7722 238.4919 14.19952315218589
SORCE                   
1 27651U 03004A   26198.88758106  .00001253  00000+0  10013-3 0  9995
2 27651  39.9915  86.4978 0018774 272.5127  87.3517 15.03849448276523
MOST                    
1 27843U 03031D   26198.97461909  .00000007  00000+0  23386-4 0  9994
2 27843  98.7053 206.2716 0010260 157.3648 202.7984 14.21328028195081
SCISAT 1                
1 27858U 03036A   26198.88374153  .00000256  00000+0  37321-4 0  9999
2 27858  73.9301 110.3531 0007237 177.7631 182.3579 14.81480612235998
SWIFT                   
1 28485U 04047A   26198.56074466  .00038109  00000+0  27754-3 0  9994
2 28485  20.5527 310.0785 0002277  47.3664 312.6974 15.71352903191641
HINODE (SOLAR-B)        
1 29479U 06041A   26198.98059135  .00000267  00000+0  54311-4 0  9990
2 29479  98.0548 214.6792 0017245 185.4950 174.6069 14.68660145 59399
SHIJIAN-6 02A (SJ-6 02A)
1 29505U 06046A   26198.95917183  .00002214  00000+0  11472-3 0  9992
2 29505  97.6341 240.2604 0004245  58.0114 302.1531 15.17262216 76938
SHIJIAN-6 02B (SJ-6 02B)
1 29506U 06046B   26199.00321903  .00000379  00000+0  34054-4 0  9991
2 29506  97.7138 227.8707 0013053 326.3970  33.6425 15.01440254 75364
FGRST (GLAST)           
1 33053U 08029A   26198.80550814  .00001834  00000+0  59947-4 0  9993
2 33053  25.5830 351.8602 0007892 331.1761  28.8341 15.24085020   364
SDO                     
1 36395U 10005A   26198.24011013 -.00000096  00000+0  00000+0 0  9994
2 36395  34.7122  85.8846 0001790  45.4971 147.9067  1.00277241 60366
CRYOSAT 2               
1 36508U 10013A   26198.95775236  .00000099  00000+0  23960-4 0  9998
2 36508  92.0358 284.7821 0002428  98.8033 261.3450 14.51898984862543
X-SAT                   
1 37389U 11015C   26198.90518539  .00000148  00000+0  80377-4 0  9995
2 37389  98.3531 174.4687 0012753 252.1145 107.8645 14.25214735792054
GCOM-W1 (SHIZUKU)       
1 38337U 12025A   26198.86664315  .00000194  00000+0  53007-4 0  9991
2 38337  98.2024 138.9584 0001288  78.7766 349.7713 14.57091435753502
NUSTAR                  
1 38358U 12031A   26199.00002315  .00002839  00000+0  12141-3 0  9995
2 38358   6.0247 162.9551 0008264 213.5986 313.9644 15.09056287  1308
NEOSSAT                 
1 39089U 13009D   26198.94117691  .00000041  00000+0  29037-4 0  9995
2 39089  98.4193  18.2447 0011607 149.4367 210.7498 14.35836194701159
BRITE-AUSTRIA           
1 39091U 13009F   26198.78518510  .00000059  00000+0  34436-4 0  9993
2 39091  98.4011  17.4659 0010906 143.4124 216.7810 14.36553072701441
IRIS                    
1 39197U 13033A   26198.53514459  .00000503  00000+0  63857-4 0  9991
2 39197  97.9318  37.7164 0023480 216.9998 142.9599 14.85939549704880
HISAKI (SPRINT-A)       
1 39253U 13049A   26198.91353804  .00000088  00000+0  28970-4 0  9993
2 39253  29.7217  63.7924 0136988 265.9047  92.5857 13.55546849635595
CASSIOPE                
1 39265U 13055A   26198.90357321  .00016250 -53665-6  17374-3 0  9996
2 39265  80.9128  29.3384 0282418 318.6934  39.3234 15.27514382672358
STSAT-3                 
1 39422U 13066G   26198.94051791  .00001672  00000+0  12908-3 0  9996
2 39422  97.6200 168.3326 0008869 294.2329  65.7969 15.02895638688828
